CCSDS_OMM_VERS = 2.0
CREATION_DATE  = 
ORIGINATOR     = 

OBJECT_NAME    = GALAXY 15 (G-15)
OBJECT_ID      = 2005-041A
CENTER_NAME    = EARTH
REF_FRAME      = TEME
TIME_SYSTEM    = UTC
MEAN_ELEMENT_THEORY = SGP/SGP4

EPOCH          = 2026-06-16T17:11:09.038976
MEAN_MOTION    = 0.98943614
ECCENTRICITY   = .0014354
INCLINATION    = 3.5359
RA_OF_ASC_NODE = 77.2731
ARG_OF_PERICENTER = 137.8081
MEAN_ANOMALY   = 105.3728

EPHEMERIS_TYPE = 0
CLASSIFICATION_TYPE = U
NORAD_CAT_ID   = 28884
ELEMENT_SET_NO = 999
REV_AT_EPOCH   = 7543
BSTAR          = 0
MEAN_MOTION_DOT = -.267E-5
MEAN_MOTION_DDOT = 0

